{"type":"FeatureCollection","features":[{"type":"Feature","geometry":{"type":"LineString","coordinates":[[-120.47044568147032,34.872113575457007],[-120.47384636447114,34.873158013291821],[-120.47697059633315,34.874109797153444],[-120.48286057117339,34.875927460758973],[-120.48287293109338,34.875931275319971],[-120.48711788852748,34.877218563839001],[-120.48774844656811,34.877427955808606],[-120.49587668712644,34.880733026811249],[-120.49739932344819,34.881360130779655],[-120.49744237341154,34.881377860387381],[-120.49747743555542,34.88140073075769],[-120.49854406368274,34.882096458603591],[-120.50069271706137,34.883512238005103],[-120.50593467151015,34.886926764060043],[-120.50702446359539,34.887652499671454],[-120.51145026357423,34.890526888844605],[-120.51147528345153,34.890543268057868],[-120.51545668326609,34.893149343575097],[-120.51913274841053,34.89556480299656],[-120.51968002633613,34.895905065895505],[-120.5204938038638,34.896369059892919],[-120.52133137237344,34.896809259057271],[-120.52275904958314,34.897501681669539],[-120.52308503562335,34.897675385593509],[-120.52339436599985,34.897877638410954],[-120.52364658957545,34.898072755828181],[-120.52388929460228,34.898303561937354],[-120.52458171602326,34.89899598447775],[-120.52496481066102,34.899369560536861],[-120.52526224374989,34.899628922705361],[-120.52559774744053,34.89987876516723],[-120.52595942803855,34.900119090956338],[-120.52635679600783,34.900347518974186],[-120.52672323228695,34.900523598793335],[-120.52698973278737,34.900635432987478],[-120.52741803604009,34.900801997092429],[-120.5274314020732,34.900807032026577],[-120.53483481628329,34.903595482736662],[-120.53554865533732,34.903904813602317],[-120.53636481070554,34.904304562760331],[-120.53695015743624,34.904632928368251],[-120.53743556748989,34.904927981556384],[-120.53786863091533,34.905215895719095],[-120.53951997695268,34.906384212272314],[-120.54726512466991,34.911830797897245],[-120.55212132636599,34.915250695430544],[-120.55874369675907,34.919913560551358],[-120.56215103537782,34.922312322442458],[-120.56239849967903,34.922505059445982],[-120.56257637239351,34.92266003815898],[-120.56263882506869,34.922714451629702],[-120.56278397215735,34.922854841104886],[-120.56279059094436,34.922861772039042],[-120.56308616452063,34.923171308729714],[-120.5633788374368,34.923537745960658],[-120.56366675197694,34.92398270483384],[-120.564385349407,34.925279511313875],[-120.565044739775,34.926494177142999],[-120.56633650817042,34.92883204615007],[-120.56752385999047,34.931009254063277],[-120.56820676555766,34.932244194660804],[-120.5683566782089,34.93249604930871],[-120.56836395905428,34.932508281227513],[-120.568384478372,34.932542753591292],[-120.56853275159784,34.93276767642466],[-120.57119366387737,34.936913790563295],[-120.5727134669127,34.939263604594643],[-120.57359148655961,34.940629414553349],[-120.57377232730776,34.940969677721313],[-120.573871176125,34.941200948651385],[-120.57389843729891,34.941264730629378],[-120.57398885632551,34.941519333741056],[-120.57401006015951,34.941594820994965],[-120.57410782920176,34.941942879142488],[-120.57418873327289,34.942392596055143],[-120.57422204370192,34.942880385262953],[-120.5741958694895,34.944255714263242],[-120.57414590070182,34.948569677850855],[-120.57413400610915,34.949266860013822],[-120.57412448756038,34.950649327084356],[-120.57408165768426,34.953021648744112],[-120.57402752610356,34.957519320628954],[-120.57402693052053,34.957568800266834],[-120.57402455267999,34.958287397971759],[-120.57400621267513,34.959403737055517],[-120.57400568266912,34.959446194949521],[-120.57394777367264,34.964082745104207],[-120.57393881477429,34.964799978245516],[-120.57392497353241,34.965786374474234],[-120.57392440849209,34.965826431375163],[-120.57389488086872,34.967920276586987],[-120.57389469940902,34.967933234213341],[-120.57388856122068,34.968368407416904],[-120.57388800696016,34.96840765182823],[-120.57387880910996,34.969060011314056],[-120.57386453308348,34.969174224777674],[-120.57378600954786,34.969333649878806],[-120.57308613300832,34.970432801652848],[-120.57306630808829,34.970464412959409],[-120.57237471401568,34.971567099831361],[-120.57236572008307,34.971581247910535],[-120.57164757630221,34.972711023032922],[-120.57163749450979,34.972726876462829],[-120.57162546067825,34.972745797962077],[-120.57134944252739,34.973233586888526],[-120.57122095110243,34.973550055171934],[-120.57115432754937,34.973771345515473],[-120.57114871757042,34.973800144397082],[-120.57112786946934,34.973907159639239],[-120.57111863568649,34.973954563173898],[-120.57107104653603,34.974492321483773],[-120.57099535538848,34.97561519548934],[-120.57086940350082,34.977483691383654]]},"properties":{"County":"SB","Route":1,"bPM":40.023000000000003,"ePM":50.606000000000002}},{"type":"Feature","geometry":{"type":"LineString","coordinates":[[-120.44284868135733,34.801162631411202],[-120.44286029567563,34.801185313852919],[-120.44483715434103,34.805045938246501],[-120.44530904924123,34.805973353481484],[-120.44641235827656,34.808141615788834],[-120.44780859714626,34.81083537267142],[-120.44782575856144,34.810868478509924],[-120.44819695501324,34.81170604899598],[-120.44836827541603,34.812191459860237],[-120.44853245690724,34.812755390488164],[-120.44884978678138,34.814170408936683],[-120.44913684073546,34.815506049032045],[-120.44932957607632,34.816493525367029],[-120.44949376116077,34.81709790855578],[-120.44956990416087,34.817428653557506],[-120.44986971688695,34.819213248724374],[-120.44995537753751,34.819527337449493],[-120.45006007438727,34.819850944281875],[-120.45011955992706,34.820212623214317],[-120.45013859522791,34.820683756774422],[-120.45011480065266,34.821200099919771],[-120.44998393048883,34.822044808648378],[-120.44992206441351,34.822613499908677],[-120.44986971598865,34.82336302954949],[-120.44979357388685,34.824095902559122],[-120.44965556391313,34.825923329330237],[-120.44962701096183,34.826442052449543],[-120.44964366842214,34.826951257505627],[-120.44969839558588,34.827479498472982],[-120.44982450737366,34.828238545673365],[-120.45038844096294,34.831129590340609],[-120.45091192161837,34.833487636834832],[-120.45111655514513,34.834548876594283],[-120.45134974252153,34.836666596211337],[-120.45159482718556,34.839019883364358],[-120.45179232180077,34.840973422521479],[-120.45184705076113,34.841349376817462],[-120.45196840327455,34.842486759361478],[-120.45236577304048,34.846379558084315],[-120.45237529158922,34.847476491055751],[-120.45236948577755,34.848806224833808],[-120.45235863592555,34.851290766255524],[-120.4523967065273,34.853503663431098],[-120.45243352936909,34.853848043581088],[-120.45248950698773,34.854169913670773],[-120.45249783796366,34.854206766794576],[-120.45255311579466,34.854449249661648],[-120.45271079617817,34.854964654964],[-120.45311649512342,34.855971166065629],[-120.45335919835362,34.856661209747671],[-120.45359952553991,34.857641548030323],[-120.45376608756662,34.858441047115285],[-120.4538588871287,34.859587946967451],[-120.45393027085446,34.860080495377744],[-120.45402782789432,34.860487382893226],[-120.45418249353175,34.860951378580005],[-120.4543585741072,34.861348748018649],[-120.4545751049216,34.861736600339455],[-120.45482494885999,34.862110176256813],[-120.45518186748868,34.862538479491356],[-120.45554830646275,34.86290967539631],[-120.45590284545425,34.863219004651583],[-120.45653102116276,34.863675861781104],[-120.45695951665498,34.863965262725706],[-120.45698175534815,34.863980282164121],[-120.46152551131036,34.866957137162927],[-120.46626302040457,34.870074231449095],[-120.46757648311412,34.870926079317073],[-120.46788819312779,34.871116434768467],[-120.46820529213487,34.871283114730794],[-120.46821231785874,34.87128680863723],[-120.46825938868129,34.87131155161525],[-120.46856871905779,34.87145907848204],[-120.46888518475262,34.871589948666092],[-120.46960854325368,34.871856448739692],[-120.47044568147032,34.872113575457007]]},"properties":{"County":"SB","Route":1,"bPM":31.042000000000002,"ePM":36.5}},{"type":"Feature","geometry":{"type":"LineString","coordinates":[[-120.51066855051234,34.740788311687133],[-120.51276085706476,34.742927123818447],[-120.51461467977389,34.744815497971743],[-120.51475754424339,34.744961020784231],[-120.51491207693016,34.745118438493456],[-120.51698479661611,34.747229782218902],[-120.51880032683962,34.749102419025469],[-120.51958993249966,34.749982532697125],[-120.52034967636298,34.75077662064075],[-120.52052898189032,34.750878766475857],[-120.52033200650133,34.750927601458031],[-120.51952470942014,34.751461482164324],[-120.51950510638399,34.751474450315719],[-120.51833871225952,34.752248067349818],[-120.51624716478349,34.753642430892661],[-120.51573320177854,34.754070734328799],[-120.51530251888862,34.754525210759049],[-120.5149479789988,34.754974930147249],[-120.51466720426855,34.755417510147097],[-120.51444115400707,34.755864848907009],[-120.51426745306878,34.756286012070554],[-120.51415561910413,34.756659588068452],[-120.51403155008528,34.757236479737443],[-120.51313721074462,34.761922955770935],[-120.51223539562415,34.766570045587187],[-120.51209262637603,34.767252949707483],[-120.51209109205352,34.767260867843888],[-120.51166432402162,34.769463469822],[-120.51122650311844,34.771543118651131],[-120.51106707910498,34.772014252210617],[-120.51088148177737,34.772394966297782],[-120.51067446771509,34.772723330907141],[-120.51041748576345,34.773051697161442],[-120.51011529609514,34.773361027522299],[-120.50983689830713,34.773601353247663],[-120.50955374304137,34.773815504016767],[-120.50920333001197,34.774037497190228],[-120.50880183248731,34.774236669313382],[-120.50841397947352,34.774388954599559],[-120.50799757261007,34.774519825626612],[-120.50757878970269,34.774612624164803],[-120.50713382898964,34.774676869699647],[-120.50659607320607,34.774714940475462],[-120.50615825050627,34.774710181906137],[-120.50367171379982,34.774503169486628],[-120.50306019285667,34.774476994702212],[-120.50240108096642,34.774491271925442],[-120.50183001116051,34.774562655790888],[-120.50094485170374,34.774719699782395],[-120.49765881439443,34.775381189860191],[-120.49698780701316,34.775502543004436],[-120.49659043724725,34.7755525100713],[-120.49612171160335,34.775571406171053],[-120.49611889179165,34.77557151906506],[-120.49557202709109,34.775535856353351],[-120.49513420708622,34.77548112853794],[-120.49471542148393,34.775390708396898],[-120.49258818304335,34.77473635735447],[-120.49203852727722,34.774617385691265],[-120.49157691090049,34.774557897212773],[-120.49093921574489,34.774541241818369],[-120.48990652866395,34.774603107752029],[-120.48887860175567,34.774684008663158],[-120.48840270935247,34.774738737007326],[-120.48790540290948,34.774822017436009],[-120.48723628648192,34.77496925753001],[-120.48721205442713,34.774974589413048],[-120.48659907821322,34.775164662038144],[-120.4861541192968,34.775326464155789],[-120.48563301738028,34.775547755239678],[-120.48504718376267,34.775834772001488],[-120.47996038093984,34.778326964438214],[-120.47925843917349,34.778583946514438],[-120.47866357569066,34.77876240680245],[-120.47798780813669,34.778907553992404],[-120.47742625598123,34.778997972492924],[-120.47691705045403,34.779050322136399],[-120.47616276116108,34.779076494732195],[-120.4737761611317,34.779005111820503],[-120.47308135917518,34.779026526848014],[-120.47259832786038,34.779069356148653],[-120.47208269129405,34.779155086253397],[-120.47162512811587,34.779231160201064],[-120.47098980990255,34.779362030926279],[-120.47022838439298,34.779569044436357],[-120.46958117068867,34.779785573981101],[-120.46900533981176,34.780025900177961],[-120.46847234240424,34.780285261619987],[-120.46782750654047,34.78064694079292],[-120.46721836613284,34.78104906939452],[-120.466618741579,34.781520202538687],[-120.46613095278646,34.781962782614478],[-120.46574785904701,34.782357773143268],[-120.46238330089703,34.786169669691887],[-120.46151003872787,34.78714524764478],[-120.46093420874928,34.787775805625515],[-120.46042738465587,34.78832070395525],[-120.459868210341,34.78887749712414],[-120.4592281355482,34.789436670927088],[-120.45846670824203,34.790019636751573],[-120.45774335333422,34.790512186772681],[-120.45701047718271,34.790957146476515],[-120.45645606304052,34.791256957918236],[-120.45378392810815,34.792572800896046],[-120.45228010879667,34.793277120974615],[-120.4516709665924,34.793612626845039],[-120.45096664518884,34.794078998643911],[-120.44960083495276,34.795123584384434],[-120.44883464837221,34.795723206864025],[-120.44557716581082,34.798121705549534],[-120.44475863080541,34.798771297585596],[-120.44426846147738,34.799232912557052],[-120.44369976951204,34.799865849982247],[-120.44334285178165,34.800348881593948],[-120.44311680421512,34.80069866161891],[-120.44297497999472,34.800942781060655],[-120.44297165443152,34.800948505165856],[-120.4429169281661,34.801057960160399]]},"properties":{"County":"SB","Route":1,"bPM":29,"ePM":36.189}},{"type":"Feature","geometry":{"type":"LineString","coordinates":[[-120.45590664712452,34.678353043921661],[-120.45596367936528,34.67848567900095],[-120.45603901208501,34.678559195811729],[-120.45636666180511,34.678889570394794],[-120.45667877156912,34.679275269345858],[-120.45795081835077,34.681135033189754],[-120.45795430561071,34.681140034275934],[-120.45887084950857,34.682454824123305],[-120.45912664209078,34.682912869999932],[-120.45928130682988,34.683308457568991],[-120.45938243377466,34.683718913075893],[-120.45944192111109,34.684188856618313],[-120.45943002292516,34.684688543451678],[-120.45936458694491,34.685197152699772],[-120.45919802581651,34.686276833870792],[-120.45907310429648,34.686937134552963],[-120.45899874714715,34.687564718614894],[-120.45887382562712,34.688230965495372],[-120.4586656221954,34.689646745210403],[-120.45835926614082,34.691484880473809],[-120.45833743528274,34.691784491017437],[-120.45837116342841,34.692255230056304],[-120.45844254805247,34.69260322641999],[-120.45854069977703,34.692933375084991],[-120.45870428838016,34.693308142268386],[-120.45885300447546,34.693590702239725],[-120.45899279760502,34.693801879292302],[-120.45929618023602,34.694167722512262],[-120.45965012184789,34.694509769588493],[-120.46001596703553,34.694795305672201],[-120.46041750049281,34.6950421734401],[-120.46079821549338,34.695235505481598],[-120.46341788162661,34.696292853344495],[-120.46350941636081,34.696329798467168],[-120.46457858402543,34.696761334034036],[-120.46531621675636,34.697124202505293],[-120.46601221167558,34.697510864533143],[-120.46657138329553,34.697867784281129],[-120.46824355856936,34.699095333592219],[-120.46841117791317,34.699218384493356],[-120.46862961674923,34.699378741601215],[-120.46956791784328,34.700104595059805],[-120.47087908445894,34.701012293429756],[-120.47198402483481,34.701777226584241],[-120.47242898285295,34.702085259682718],[-120.47302622776957,34.702530218152724],[-120.47369485641194,34.702970418173749],[-120.47428496331536,34.703289267555412],[-120.47501783946684,34.70363190835733],[-120.47603386729085,34.704069730428337],[-120.47656924433558,34.704274362682703],[-120.48471176361537,34.706806109264747],[-120.48524000174851,34.706991708498776],[-120.48575396834676,34.70724393226098],[-120.48624889335591,34.707555638868612],[-120.48669385406896,34.707929215134939],[-120.48702222064463,34.708276616840521],[-120.48727682295909,34.708607360949358],[-120.48747193883545,34.708930967950273],[-120.4876646750746,34.709344993870374],[-120.48853317886771,34.711710179453064],[-120.48888771785919,34.712709553774381],[-120.48902601798879,34.713187164462234],[-120.48902714447614,34.713191902208713],[-120.48918277131088,34.713846936609372],[-120.48930412382431,34.714570290604321],[-120.48936837043513,34.715360272924428],[-120.48942071796168,34.716157391721609],[-120.48949686186009,34.716747499211792],[-120.48962773112564,34.717316189923068],[-120.48982522663916,34.717896778010143],[-120.49006079275445,34.718405982834092],[-120.49037250276812,34.718934222798943],[-120.49066517837929,34.719343492261373],[-120.49096736714928,34.719717066232711],[-120.49135284052591,34.720126333297081],[-120.4924188389342,34.721142362900977],[-120.49268533943462,34.721449313820187],[-120.49294707976232,34.721799093814013],[-120.49319473270974,34.72219417727618],[-120.4934777011259,34.722687425908035],[-120.49412253429473,34.723772461092921],[-120.49445089817549,34.724262629602777],[-120.49477212763624,34.724688554386908],[-120.49524797692034,34.725233824156561],[-120.49567156311952,34.725683168468144],[-120.49648771758943,34.726446975690592],[-120.49720065293826,34.727101938314483],[-120.49817951566231,34.728026937672034],[-120.50031627265166,34.730218420860346],[-120.50253295724339,34.732477547606493],[-120.50447033854529,34.734458473470852],[-120.5066789535708,34.736716729857385],[-120.50845987619797,34.738530374009471],[-120.50849202600371,34.738563240165114],[-120.51066855051234,34.740788311687133]]},"properties":{"County":"SB","Route":1,"bPM":23.295999999999999,"ePM":29}},{"type":"Feature","geometry":{"type":"LineString","coordinates":[[-120.37420422884011,34.575222219858105],[-120.37478692104915,34.575655685548334],[-120.3757458447672,34.576505152306936],[-120.37669049066207,34.577307031707804],[-120.37711165500325,34.577678227803354],[-120.37735198129124,34.577901896720228],[-120.37807295835847,34.578513419059668],[-120.37860357792542,34.578977412548319],[-120.37950539484252,34.579800706605347],[-120.37986707184727,34.580079103431316],[-120.3802358877636,34.580281357835865],[-120.38065229552537,34.580464576411472],[-120.38183726591154,34.580869085071186],[-120.38215611483682,34.581007094005805],[-120.38251303256718,34.581223623451756],[-120.38278667108085,34.581452052515722],[-120.38324818055807,34.581991161521607]]},"properties":{"County":"SB","Route":1,"bPM":12.505000000000001,"ePM":13.206}},{"type":"Feature","geometry":{"type":"LineString","coordinates":[[-120.22589172325507,34.509207195626828],[-120.22598968004523,34.509281389447324],[-120.22610649965975,34.509369870612488],[-120.2262740049175,34.509496739840579],[-120.22628822165518,34.509507508122887],[-120.22633311316488,34.509541511072953],[-120.22692949030899,34.510005972882581],[-120.22699001699618,34.510109005566818],[-120.22728506954957,34.510301265936803],[-120.22752918942297,34.510412393440816],[-120.22773053960736,34.51049293293736],[-120.22785041529046,34.510540883669321],[-120.22807496626372,34.510597527647271],[-120.22811453615368,34.510607508921836],[-120.22829426568583,34.510638655613306],[-120.22834623771659,34.510647661999243],[-120.22871610466179,34.510657379005565],[-120.22889120966687,34.510653368436643],[-120.22902349018572,34.510650338673017],[-120.23091367579921,34.510660154869875],[-120.23111574283924,34.510664807958499],[-120.23163703070702,34.510676810794017],[-120.23211292400856,34.510714881571111],[-120.23269827163759,34.510810059548071],[-120.23316940386812,34.510914756751646],[-120.23360008765638,34.511052765525093],[-120.23410215337371,34.511255019719179],[-120.23500634992801,34.51159052240893],[-120.23590006853281,34.511928436122275],[-120.2366121190411,34.512213800500497],[-120.23665333554297,34.512230319174044],[-120.23714690589267,34.512428123299884],[-120.23727096592835,34.512425399309492],[-120.23814039768114,34.512804603081925],[-120.2395894907272,34.513368536427215],[-120.24332048605463,34.514655824637074],[-120.24399387307307,34.514858078227888],[-120.24519550091958,34.515150751577664],[-120.24739174255041,34.515614746892929],[-120.24876945097242,34.515962146761289],[-120.2493833533494,34.516195333804411],[-120.25027565081942,34.516497527075771],[-120.25109418582483,34.516802096696068],[-120.25111165805708,34.516808140972337],[-120.25292399117652,34.517435034255783],[-120.25342605689384,34.517565903661335],[-120.25398760994763,34.517680119080467],[-120.2545705788378,34.517741983788369],[-120.25685248291578,34.517899028692241],[-120.25777333423541,34.517929961710841],[-120.25977922016259,34.517948996554836],[-120.2601789695657,34.517963272870027],[-120.26071672714592,34.518013242914556],[-120.2614329458371,34.518113179212932],[-120.26196118666522,34.518225014256934],[-120.26256319085621,34.518396335231429],[-120.26336744803851,34.51868900947477],[-120.26555639804417,34.519530555810285],[-120.2656017620677,34.519547994521922],[-120.26692236279044,34.519995333494059],[-120.27226901229234,34.521641921229808],[-120.27296619478436,34.52185131344816],[-120.27368479311272,34.522053567333899],[-120.27479600013604,34.522262959257546],[-120.2752980667517,34.522334344513816],[-120.28027976219467,34.522958528075108],[-120.28033062839931,34.522964899778373],[-120.28082793574062,34.523052940103504],[-120.28152035805992,34.523229019734572],[-120.28188441649849,34.523355132183156],[-120.28261729085337,34.523669219033991],[-120.28528704704682,34.525125451190689],[-120.28572486705171,34.525334842792944],[-120.28631735179565,34.525582307473627],[-120.28690032248245,34.525782181771923],[-120.28692821786694,34.525789546468076],[-120.28779261905414,34.526017748852922],[-120.28853263142229,34.526153377633577],[-120.28926788541433,34.526239038892967],[-120.29009117969414,34.526277109959935],[-120.29079549930107,34.526262834329536],[-120.2908108685773,34.52626162649959],[-120.29152242501213,34.526205725862546],[-120.29214346360571,34.526112926370494],[-120.29269074063299,34.526001091555031],[-120.29486318858686,34.525529958112706],[-120.29759890627503,34.524929346884861],[-120.29795109257881,34.52485202081462],[-120.29832054809559,34.524770909775185],[-120.29870915659255,34.524672289971321],[-120.29910814781758,34.524571035270299],[-120.29929758095143,34.524520454870412],[-120.30001710184962,34.524328330926842],[-120.30134008220955,34.52391430402038],[-120.30274396574232,34.523462205680104],[-120.30488849405715,34.522781622635371],[-120.3049782797715,34.522753126423105],[-120.30499129007174,34.522748818166839],[-120.30793832834567,34.521772789207539],[-120.30859744023594,34.521515806187352],[-120.30927558652874,34.521215995115703],[-120.30991804095871,34.520887629123877],[-120.31079844024278,34.520428392693503],[-120.31241264902798,34.51960773064885],[-120.31306368865711,34.519276732991457],[-120.31368710688785,34.518912674906005],[-120.31454133375615,34.518496269589896],[-120.31510050717273,34.518186939509597],[-120.31585717610285,34.51786809196139],[-120.31659718847099,34.517665838275768],[-120.31688510301112,34.517627766233502],[-120.31803200369392,34.517537346451263],[-120.31857452054851,34.5175278293529],[-120.31954772029303,34.517603972030969],[-120.32174634425598,34.517713426638707],[-120.32217940498644,34.517758636816659],[-120.32412104520111,34.517868090481031],[-120.32474611453537,34.517921452763346],[-120.32509662458281,34.517951373967072],[-120.32596036820324,34.518051309599485],[-120.32697163944779,34.518225010556101],[-120.32786155728064,34.518442836620224],[-120.32810902158187,34.518503407700912],[-120.32908460096355,34.518786563873356],[-120.33612386959851,34.521305758105399],[-120.3362586788749,34.521354001629348],[-120.33747131737186,34.521796796117414],[-120.33791240275278,34.52197979935891],[-120.33841922864282,34.522246299728444],[-120.33886180882037,34.522510419742915],[-120.33936625507322,34.52285781972116],[-120.33961847775049,34.523055316630007],[-120.34003726155616,34.523428891538998],[-120.3403442131938,34.523745359799292],[-120.34081772506153,34.524297395843476],[-120.34113181471243,34.524713801765422],[-120.34148397586337,34.525289629325812],[-120.34286882229863,34.527619121527302],[-120.34368973514461,34.528989692885382],[-120.34397289220699,34.529451308041075],[-120.34426556691982,34.529872472680921],[-120.34471052583623,34.530424506595729],[-120.34531253002726,34.531043167222236],[-120.34559653060769,34.531316609833596]]},"properties":{"County":"SB","Route":1,"bPM":0,"ePM":7.6059999999999999}},{"type":"Feature","geometry":{"type":"LineString","coordinates":[[-120.34559653060769,34.531316609833596],[-120.35023087627641,34.535778296170612],[-120.35208209836276,34.537567650804903],[-120.35240332512859,34.537919811215495],[-120.35268410255379,34.53829814488568],[-120.35290301031047,34.538636029436816],[-120.35304577955856,34.538900148529734],[-120.35371440909925,34.540287374376625],[-120.35423869015358,34.541333857529949],[-120.35431291614887,34.541482015467793],[-120.35481419943359,34.542531797825653],[-120.35567831854981,34.544341360582813],[-120.35573017739284,34.544449956508537],[-120.35575360725208,34.544499020525251],[-120.35680532963389,34.546773785827618],[-120.35712417676253,34.547425757518496],[-120.35824014485684,34.549774286123316],[-120.35862323859628,34.550545233087675],[-120.35901109071176,34.55124003516017],[-120.3601817850715,34.553041286453272],[-120.36099555990421,34.554271468532107],[-120.36165705143169,34.555297015374293],[-120.36197589945864,34.555863326585346],[-120.36217339497216,34.556291630078249],[-120.36239468506093,34.556817491516163],[-120.36272067110114,34.557640784540652],[-120.36310376484055,34.558652055282096],[-120.36399368447003,34.560936338636957],[-120.36428947454027,34.561666509974451],[-120.36438365121971,34.561898987561442],[-120.36459958195948,34.562464403832159],[-120.3653309408565,34.564379419206659],[-120.36579731471096,34.565581047490888],[-120.3658877346359,34.565778542910074],[-120.36599481112282,34.56597127912066],[-120.36609950797254,34.566133082032479],[-120.36620182428678,34.566256814111298],[-120.36642073384006,34.566492380572726],[-120.36668961307932,34.566716049255028],[-120.36692756062841,34.566868336300402],[-120.36793645133747,34.567439406538298],[-120.3681458432403,34.567577415577027],[-120.36835999531586,34.56774397696114],[-120.36853369625412,34.567922436431985],[-120.36870977682959,34.56813896741307],[-120.36895724113079,34.56857916815877],[-120.37015886897734,34.570918178150045],[-120.37085843020822,34.572298265583932],[-120.37097264470837,34.57250527879431],[-120.3711701393236,34.572807470349005],[-120.37138429050081,34.573076349521358],[-120.37162699642596,34.573328572600794],[-120.37186732181559,34.573542723294572],[-120.37213858069205,34.573742599292672],[-120.37420157252181,34.575220242756217],[-120.37420422884011,34.575222219858105]]},"properties":{"County":"SB","Route":1,"bPM":9.0199999999999996,"ePM":12.505000000000001}},{"type":"Feature","geometry":{"type":"LineString","coordinates":[[-120.38324818055807,34.581991161521607],[-120.38332442955938,34.582080231053489],[-120.38379080341386,34.582717924843827],[-120.38386694641395,34.582794068538092],[-120.38424941043436,34.583032868952515],[-120.38438504077095,34.583109013097882],[-120.38467060980985,34.583282170785424],[-120.3847599427733,34.583336340176366],[-120.38524418232213,34.583508343641178],[-120.38546118565039,34.583538839591689],[-120.38578003367731,34.583591188703998],[-120.38630506392659,34.583634401731651],[-120.38635824419143,34.583638777836143],[-120.38748491661063,34.583713729961453],[-120.38827251992591,34.583816046484998],[-120.38921478708191,34.583989747768783],[-120.39025223164063,34.58416344868948],[-120.39097796798224,34.584249108665823],[-120.39164421698744,34.584299077375981],[-120.39297433536063,34.584372841148216],[-120.39352636986567,34.584451362537095],[-120.39400464100777,34.584539402164488],[-120.39566550649216,34.584972465013216],[-120.39611284414747,34.585050987314688],[-120.39655304378952,34.58508667816966],[-120.39688379090073,34.58508429897698],[-120.39714077285235,34.585065263954327],[-120.39790220015853,34.584941531023787],[-120.39981290688637,34.584591751386114],[-120.40085749125495,34.584391875589866],[-120.40402217425421,34.583737523756298],[-120.40432436661749,34.583697072378101],[-120.40456469200711,34.583680417010186],[-120.40491209388368,34.583685175475772],[-120.40528566817606,34.583725625380573],[-120.40553788995503,34.583770835945089],[-120.40586149905299,34.583858875553894],[-120.40619700184527,34.583975469465187],[-120.40644208740761,34.58409206395249],[-120.40673238068663,34.584258625531582],[-120.40708692057646,34.584525125434503],[-120.40737959528926,34.584801142765663],[-120.40739800805765,34.584894229590944],[-120.40771923662011,34.585340378699463],[-120.40785010768226,34.585608067310659],[-120.40790521932495,34.585828517760866],[-120.40794703500309,34.586025944375571],[-120.40799411121557,34.586400729059669],[-120.40811544216943,34.587626752488873],[-120.40823082088619,34.588864957200627],[-120.40828435957883,34.589233772151275],[-120.40832955202414,34.589431192893976],[-120.40833135943447,34.589439093293265],[-120.40839738291292,34.589727510228968],[-120.40858375818155,34.590051856710453],[-120.40913087890198,34.591582605895766],[-120.40994465463304,34.593909720227231],[-120.41039913119985,34.595161317185863],[-120.41050144931074,34.595375468565706],[-120.41063707785062,34.595594378656003],[-120.41079650276242,34.595796633751142],[-120.41100351502807,34.596013163851865],[-120.41118435397962,34.596170207478693],[-120.41139850605515,34.596315355714651],[-120.41168166132093,34.596474779855086],[-120.41196957675936,34.596600890742032],[-120.412288423888,34.596710346463013],[-120.41272356511668,34.596817731539709],[-120.41339725307071,34.596983983655505],[-120.41617170611394,34.597681166252457],[-120.41648460370045,34.597795380425794],[-120.41676775986451,34.597938148476274],[-120.41702712235166,34.598114228635218],[-120.41721509931645,34.598271272726478],[-120.41742924959536,34.598509218224052],[-120.41760771070631,34.598782856145483],[-120.41773858087018,34.599082667274047],[-120.41780520532153,34.599332512505214],[-120.4178266211579,34.599584735762292],[-120.41781234333479,34.599877408428853],[-120.4177742718347,34.600074904441655],[-120.4177338224941,34.60019863480003],[-120.41736738531665,34.601159937339311],[-120.41728886267938,34.601447852922419],[-120.41726506810414,34.601738147702072],[-120.41727696539176,34.602054616117918],[-120.41818829906097,34.606616042852316],[-120.41832868687526,34.607106212175722],[-120.41859994575169,34.607684420323103],[-120.41890451775214,34.608129380140184],[-120.41921622686753,34.608481540493031],[-120.41962264446501,34.608839003501494],[-120.41998003470923,34.609112097971611],[-120.42030839948829,34.609316731178453],[-120.42538617064923,34.611910344033362],[-120.42578829968951,34.612172084158956],[-120.4261452183182,34.612457621596853],[-120.42639030388054,34.612688425989163],[-120.42666870077024,34.613002516420167],[-120.42689236959789,34.613311845937183],[-120.4271112809478,34.613680663236835],[-120.42726832532408,34.614023305070809],[-120.42739205567803,34.614368326062376],[-120.42749199415174,34.614791870120271],[-120.42753958420052,34.615144031784482],[-120.42768235165201,34.617480662873831],[-120.42773469917857,34.617980349067707],[-120.42779894399276,34.618346785866521],[-120.42792029830278,34.618851231429076],[-120.42793570261327,34.61903678012434],[-120.42870791419443,34.62152586108796],[-120.42871429223297,34.621544918803387],[-120.42919086915244,34.622968839340217],[-120.42950051214265,34.623599243899498],[-120.42966682353941,34.623745783460294],[-120.43080182603629,34.625387612203923],[-120.43214384259544,34.627300698590957],[-120.43238892815775,34.62772662115102],[-120.43256262729942,34.628119233091383],[-120.43267922233507,34.628466634787451],[-120.43276725992789,34.628821174761967],[-120.43281247123781,34.629099571392054],[-120.43285292237505,34.629589740263825],[-120.43283626581305,34.629965694344591],[-120.43277677937495,34.630420172696653],[-120.43267208252522,34.630853233583906],[-120.43257690422423,34.631131630786648],[-120.43243413767107,34.631483789639702],[-120.43199869730338,34.632442714271193],[-120.43193683032979,34.632637829638675],[-120.4319011375686,34.632849601884573],[-120.43189399955536,34.633044717034124],[-120.43191541539171,34.633223176683259],[-120.43194872851569,34.633368325187767],[-120.43201535117045,34.633561062052522],[-120.43210815163086,34.633741899867829],[-120.43224615980797,34.633927498049822],[-120.43247220827281,34.634160684825794],[-120.43273157075996,34.634341525029534],[-120.43358341709273,34.63487928183001],[-120.43379280989389,34.635048225009378],[-120.43397840811981,34.635255237808373],[-120.43414259050932,34.635500322159338],[-120.43423776881032,34.635709715267971],[-120.43430439415999,34.635950039848815],[-120.43433056927076,34.636183226851863],[-120.43432104982367,34.636392620453805],[-120.43419256109364,34.637130252996606],[-120.43417114435896,34.637384854410669],[-120.43419017965984,34.637668010933552],[-120.43424252808468,34.637932131020122],[-120.43430677379716,34.63812962666919],[-120.43439481408494,34.638329500993379],[-120.43449237202309,34.638524617295502],[-120.4357240143799,34.640827216477419],[-120.43595098271959,34.641251479851427],[-120.43595779374607,34.641247710601803],[-120.43639297090736,34.641006909150555],[-120.43880633624066,34.639671517358877],[-120.44003651614018,34.638986233436974],[-120.44031353681086,34.6388881149173],[-120.44034238979948,34.638882565832432],[-120.4406075877427,34.638831567153439],[-120.4427102473788,34.638841037853339],[-120.44525692719182,34.638863761911701],[-120.44527266298066,34.63886390159967],[-120.44895408208416,34.638896236772396],[-120.44902853984482,34.63889688938842],[-120.44907428116076,34.638917346644554],[-120.44912893556098,34.63894178832507],[-120.45029517697185,34.63895057239872],[-120.45029760960963,34.638950590136822],[-120.45154047911086,34.638959953655288],[-120.45157381199779,34.638960204206448],[-120.45282086046171,34.638969598026435],[-120.45282849075177,34.63896965567541],[-120.45408370130836,34.638979133011333],[-120.45409717334267,34.638979359911573],[-120.45534633374587,34.639000412852774],[-120.45538433068573,34.639000705531849],[-120.45659163408823,34.639009997353014],[-120.45661405693606,34.639010168821599],[-120.4577806379101,34.639019099966553],[-120.45788567162806,34.63899526805691],[-120.45783826034399,34.639086462675344],[-120.45783365737647,34.640640584988752],[-120.45783365288491,34.64064115555383],[-120.45781337611231,34.642236991576169],[-120.45781330694201,34.642242431055735],[-120.45779374792335,34.643781825641661],[-120.45779328529099,34.643818319723955],[-120.45779295560926,34.643855366596092],[-120.45777904789203,34.645414201023733],[-120.45777882870311,34.645431790708841],[-120.4577594978565,34.646986823554613],[-120.45775920859897,34.647010039044297],[-120.45772001420482,34.650158191817098],[-120.45771940424875,34.650199725952326],[-120.45769575430229,34.65181202636532],[-120.45768841326975,34.65337778452367],[-120.45768840698155,34.65337891956689],[-120.45762430769447,34.655190361504836],[-120.45756957963239,34.656289673490797],[-120.45754582548133,34.657134648888047],[-120.45754599077135,34.657145574661101],[-120.45756718562217,34.658556360215009],[-120.45759099457047,34.659723235807775],[-120.45762304017158,34.660732607068404],[-120.45762430769447,34.660772578315346],[-120.45762452239181,34.660804632291821],[-120.4576247047498,34.660831801427932],[-120.45763204129074,34.661928997046687],[-120.45766475883168,34.662815346705401],[-120.45767070747549,34.66381471963107],[-120.45759050768358,34.66647613260993],[-120.45759039449585,34.666498239547785],[-120.45758628200849,34.66730309992338],[-120.45758589393627,34.667375641053432],[-120.45757106814084,34.668582565326297],[-120.45755603393623,34.669247038100373],[-120.45755439361253,34.669319567184793],[-120.45752645331224,34.670554544467443],[-120.45747886326345,34.671366534011568],[-120.45741045475792,34.67200601468781],[-120.45725578912052,34.672936979705312],[-120.45700892040233,34.674058300806458],[-120.45675931002592,34.675783211089851],[-120.45675772270282,34.675794175035747],[-120.45662013224234,34.676602016828348],[-120.45666256596138,34.676720619897502],[-120.4565911382182,34.677037132534302],[-120.45654583258516,34.677218352009369],[-120.45654162846964,34.677235168124639],[-120.45647231715726,34.677426601807674],[-120.4563997036379,34.677591630846258],[-120.45629738642533,34.67779296581314],[-120.45616536282466,34.678007503805908],[-120.45600243089,34.678226817189625],[-120.45590664712452,34.678353043921661]]},"properties":{"County":"SB","Route":1,"bPM":13.218999999999999,"ePM":23.295999999999999}},{"type":"Feature","geometry":{"type":"LineString","coordinates":[[-120.47044568147032,34.872113575457007],[-120.47384636447114,34.873158013291821],[-120.47697059633315,34.874109797153444],[-120.48286057117339,34.875927460758973],[-120.48287293109338,34.875931275319971],[-120.48711788852748,34.877218563839001],[-120.48774844656811,34.877427955808606],[-120.49587668712644,34.880733026811249],[-120.49739932344819,34.881360130779655],[-120.49744237341154,34.881377860387381],[-120.49747743555542,34.88140073075769],[-120.49854406368274,34.882096458603591],[-120.50069271706137,34.883512238005103],[-120.50593467151015,34.886926764060043],[-120.50702446359539,34.887652499671454],[-120.51145026357423,34.890526888844605],[-120.51147528345153,34.890543268057868],[-120.51545668326609,34.893149343575097],[-120.51913274841053,34.89556480299656],[-120.51968002633613,34.895905065895505],[-120.5204938038638,34.896369059892919],[-120.52133137237344,34.896809259057271],[-120.52275904958314,34.897501681669539],[-120.52308503562335,34.897675385593509],[-120.52339436599985,34.897877638410954],[-120.52364658957545,34.898072755828181],[-120.52388929460228,34.898303561937354],[-120.52458171602326,34.89899598447775],[-120.52496481066102,34.899369560536861],[-120.52526224374989,34.899628922705361],[-120.52559774744053,34.89987876516723],[-120.52595942803855,34.900119090956338],[-120.52635679600783,34.900347518974186],[-120.52672323228695,34.900523598793335],[-120.52698973278737,34.900635432987478],[-120.52741803604009,34.900801997092429],[-120.5274314020732,34.900807032026577],[-120.53483481628329,34.903595482736662],[-120.53554865533732,34.903904813602317],[-120.53636481070554,34.904304562760331],[-120.53695015743624,34.904632928368251],[-120.53743556748989,34.904927981556384],[-120.53786863091533,34.905215895719095],[-120.53951997695268,34.906384212272314],[-120.54726512466991,34.911830797897245],[-120.55212132636599,34.915250695430544],[-120.55874369675907,34.919913560551358],[-120.56215103537782,34.922312322442458],[-120.56239849967903,34.922505059445982],[-120.56257637239351,34.92266003815898],[-120.56263882506869,34.922714451629702],[-120.56278397215735,34.922854841104886],[-120.56279059094436,34.922861772039042],[-120.56308616452063,34.923171308729714],[-120.5633788374368,34.923537745960658],[-120.56366675197694,34.92398270483384],[-120.564385349407,34.925279511313875],[-120.565044739775,34.926494177142999],[-120.56633650817042,34.92883204615007],[-120.56752385999047,34.931009254063277],[-120.56820676555766,34.932244194660804],[-120.5683566782089,34.93249604930871],[-120.56836395905428,34.932508281227513],[-120.568384478372,34.932542753591292],[-120.56853275159784,34.93276767642466],[-120.57119366387737,34.936913790563295],[-120.5727134669127,34.939263604594643],[-120.57359148655961,34.940629414553349],[-120.57377232730776,34.940969677721313],[-120.573871176125,34.941200948651385],[-120.57389843729891,34.941264730629378],[-120.57398885632551,34.941519333741056],[-120.57401006015951,34.941594820994965],[-120.57410782920176,34.941942879142488],[-120.57418873327289,34.942392596055143],[-120.57422204370192,34.942880385262953],[-120.5741958694895,34.944255714263242],[-120.57414590070182,34.948569677850855],[-120.57413400610915,34.949266860013822],[-120.57412448756038,34.950649327084356],[-120.57408165768426,34.953021648744112],[-120.57402752610356,34.957519320628954],[-120.57402693052053,34.957568800266834],[-120.57402455267999,34.958287397971759],[-120.57400621267513,34.959403737055517],[-120.57400568266912,34.959446194949521],[-120.57394777367264,34.964082745104207],[-120.57393881477429,34.964799978245516],[-120.57392497353241,34.965786374474234],[-120.57392440849209,34.965826431375163],[-120.57389488086872,34.967920276586987],[-120.57389469940902,34.967933234213341],[-120.57388856122068,34.968368407416904],[-120.57388800696016,34.96840765182823],[-120.57387880910996,34.969060011314056],[-120.57386453308348,34.969174224777674],[-120.57378600954786,34.969333649878806],[-120.57308613300832,34.970432801652848],[-120.57306630808829,34.970464412959409],[-120.57237471401568,34.971567099831361],[-120.57236572008307,34.971581247910535],[-120.57164757630221,34.972711023032922],[-120.57163749450979,34.972726876462829],[-120.57162546067825,34.972745797962077],[-120.57134944252739,34.973233586888526],[-120.57122095110243,34.973550055171934],[-120.57115432754937,34.973771345515473],[-120.57114871757042,34.973800144397082],[-120.57112786946934,34.973907159639239],[-120.57111863568649,34.973954563173898],[-120.57107104653603,34.974492321483773],[-120.57099535538848,34.97561519548934],[-120.57086940350082,34.977483691383654]]},"properties":{"County":"SB","Route":1,"bPM":40.023000000000003,"ePM":50.606000000000002}},{"type":"Feature","geometry":{"type":"LineString","coordinates":[[-120.51076851054557,34.740683227223322],[-120.51287745030378,34.742836704188477],[-120.51483803598781,34.744832300349508],[-120.51893833501674,34.749033414940662],[-120.51948744820045,34.749649452683769],[-120.51969976322121,34.749887641267136],[-120.52047324412189,34.750706046557561],[-120.52052898189032,34.750878766475857],[-120.52043372992749,34.751023186234768],[-120.51960876388294,34.75157190845475],[-120.51647083540779,34.753659087552066],[-120.51595449276562,34.75406359505844],[-120.51555950084024,34.754453827277125],[-120.51512167993707,34.754982067862734],[-120.51484328304738,34.755422269090694],[-120.51461247620649,34.755864848907009],[-120.51444353274596,34.756269355941015],[-120.51432218202915,34.756664346202456],[-120.51418893222814,34.757256832479939],[-120.5137524075939,34.759569913300886],[-120.51283263964248,34.764297659234209],[-120.51239249928925,34.766626732664378],[-120.51228298477464,34.767155392743618],[-120.51227893247439,34.767176092826588],[-120.5118217564701,34.769511435607299],[-120.51156676788005,34.770696030605336],[-120.51140138084975,34.771495773149681],[-120.511262194083,34.771950006816574],[-120.51106470036609,34.77237355102482],[-120.51081961480375,34.772770921423216],[-120.51056025501157,34.773104045412474],[-120.51026044228549,34.773427652246404],[-120.50995587208166,34.773698909970946],[-120.50964178153248,34.773922580668724],[-120.50924917193922,34.77416528442803],[-120.50889225151391,34.774343744680934],[-120.5084806057215,34.774500789089075],[-120.5080142309687,34.774645936397299],[-120.50760734265401,34.774736356616579],[-120.50711955386147,34.774810118445082],[-120.50660796959538,34.774843432811451],[-120.50616538941783,34.774836293861654],[-120.50521360461137,34.774767289884977],[-120.50338855763573,34.774619763133941],[-120.50281272765716,34.774612624164803],[-120.50231066283811,34.774638798168304],[-120.50183239079767,34.774693526542457],[-120.50069024849097,34.774900539222287],[-120.49706157037609,34.775631034113957],[-120.49661185038866,34.775676244065153],[-120.49613120050769,34.775697659218885],[-120.49612941555522,34.775697568461098],[-120.49610508468575,34.775696319987937],[-120.49557440672828,34.77566910666318],[-120.49510803287382,34.775607240053006],[-120.49468924637317,34.775516820050221],[-120.4926333925567,34.774879124599558],[-120.49203138836565,34.774753013447388],[-120.49158405250698,34.774691147626122],[-120.49114860764774,34.774667352556314],[-120.49072982384207,34.774674491520713],[-120.49014209567756,34.774729218395407],[-120.48838367494992,34.774943370664737],[-120.48785781286071,34.775031410913684],[-120.48727789554754,34.775166149590184],[-120.48670615470013,34.775338360858676],[-120.4861636360489,34.775540615612954],[-120.48565919159269,34.775759525023396],[-120.48530935438339,34.775929544328704],[-120.48065756343186,34.778224647441633],[-120.48007221580283,34.778500664717853],[-120.47951304238626,34.778714816790597],[-120.47895862824404,34.77889089652458],[-120.47836138242907,34.779038423755246],[-120.47776175967188,34.779150257845608],[-120.47728110799426,34.779216883797993],[-120.47691705045403,34.779243057816636],[-120.47609137743535,34.779262092522217],[-120.47372381360515,34.779195468082023],[-120.47321698771511,34.779207364964833],[-120.4726482984447,34.779254955430432],[-120.4721010205191,34.779328718384285],[-120.47209498923031,34.779329952045785],[-120.47149663848752,34.779452450404364],[-120.47056150844644,34.779678499034958],[-120.4698429119147,34.779909307529408],[-120.46917666201117,34.780180566080496],[-120.46865793973181,34.78042565010454],[-120.46808686992593,34.780744497301939],[-120.46759194222182,34.781053827598257],[-120.46718981228319,34.781336982650899],[-120.46673057554366,34.781708179447726],[-120.46630465282644,34.782100791017264],[-120.46587634957369,34.782543370929453],[-120.46259031226437,34.786264848464789],[-120.46112456535126,34.787899539730795],[-120.46042976339476,34.788639550883708],[-120.45989438455341,34.789148755694271],[-120.45937328263689,34.78960085304989],[-120.45853333269339,34.790238549054969],[-120.45777190448889,34.790742995200937],[-120.45714610572263,34.791109431883179],[-120.45652744676624,34.7914473161537],[-120.45388148784296,34.792746501424176],[-120.45230152373475,34.793488893934381],[-120.45168048424284,34.793850569802011],[-120.4508191193613,34.794457333627825],[-120.45005531241792,34.795028404769916],[-120.44886082258462,34.795965912876902],[-120.44630290215247,34.797848066527543],[-120.44545343366021,34.798478624551834],[-120.44504416660668,34.79880223069307],[-120.44461586515055,34.799192463084495],[-120.44416614695976,34.799654077910645],[-120.44392581977348,34.799944371534046],[-120.44374736045916,34.800244184967518],[-120.4436283875829,34.800541616926871],[-120.44356652060931,34.80085332711235],[-120.44354748710505,34.801160276862738]]},"properties":{"County":"SB","Route":1,"bPM":29,"ePM":36.189}},{"type":"Feature","geometry":{"type":"LineString","coordinates":[[-120.45590664712452,34.678353043921661],[-120.45606107111513,34.678400846886632],[-120.45637910077686,34.678692504286836],[-120.45652492878848,34.678853846001395],[-120.45671743505895,34.679087885966894],[-120.45699107536922,34.679447780231051],[-120.4573876132952,34.679986865935625],[-120.45744614662078,34.68006644041531],[-120.45812207317654,34.681033238490009],[-120.45813550299003,34.6810524472629],[-120.45889761840573,34.682142519906023],[-120.45914448712392,34.682508361469793],[-120.45936458874155,34.68294261363075],[-120.45952520212447,34.683412556408555],[-120.45960848313783,34.683805169105412],[-120.45965012274618,34.684173985397436],[-120.45965607228834,34.684566594483648],[-120.45958766198615,34.685217973776055],[-120.45942704950158,34.686247089960411],[-120.45930510230345,34.68689846858836],[-120.45922182129009,34.687543896651462],[-120.45853475203155,34.691580056847471],[-120.45852582906583,34.6918893872461],[-120.45854664931916,34.692168973967519],[-120.45860316143539,34.69249020119873],[-120.45873105817563,34.692906607201721],[-120.45895352146417,34.693388314031189],[-120.45921216979067,34.693791926658413],[-120.45952716763829,34.69414292634319],[-120.45983750682289,34.694426488691427],[-120.46016170880894,34.694670383249019],[-120.46049185943876,34.694872636114731],[-120.46076549525746,34.695024328394062],[-120.46109862200584,34.695170069594731],[-120.46358091237595,34.69616751071473],[-120.46468863393595,34.696612618440717],[-120.4653045000301,34.696900721193472],[-120.46601518330252,34.697293738172426],[-120.46671415164533,34.697754758125221],[-120.46684699720448,34.697852088326286],[-120.46836877024522,34.698966966398153],[-120.468541187491,34.699095846147721],[-120.46876048781141,34.699259768479649],[-120.46957267711765,34.699885684531658],[-120.47096517360588,34.700877084451434],[-120.47108817632447,34.700964658613373],[-120.47252178061839,34.701985321552925],[-120.47303574542001,34.702377933304611],[-120.47364964689865,34.702777683202662],[-120.47425640946572,34.703125084386187],[-120.4750678064579,34.703512937658594],[-120.47600769218012,34.703924583154659],[-120.47642885741959,34.704088766214355],[-120.47697375480969,34.704267225017936],[-120.48113067375265,34.705552133582714],[-120.48477127071472,34.706688236826729],[-120.48534231985937,34.706894149041652],[-120.48578014166085,34.707113060227208],[-120.48622747931616,34.707381939268885],[-120.4866105721573,34.707674613353873],[-120.48696035367104,34.707998218834483],[-120.48719829942347,34.708262339985716],[-120.48745052120243,34.708612121850628],[-120.48767657236222,34.709007111024405],[-120.48769508753854,34.709050020211556],[-120.48782647782693,34.709354511157002],[-120.48878740119481,34.711988029598629],[-120.48902810657179,34.712647686516753],[-120.48917522636084,34.713131081663427],[-120.48918247846011,34.713161215400696],[-120.48934695459874,34.713844555940248],[-120.48946116730231,34.71455125649193],[-120.48953017228915,34.715357893037229],[-120.48958252071401,34.716152632731408],[-120.48963724877606,34.716652320035486],[-120.48974670400186,34.717159144565052],[-120.48991564566576,34.717701661815831],[-120.49011552171481,34.718165658177085],[-120.49037012313092,34.718648688061919],[-120.49067469333477,34.719112684277761],[-120.49101495719808,34.719552883181812],[-120.4913861536499,34.719955011794319],[-120.49252591542114,34.721044806844759],[-120.49281858923565,34.721375549363103],[-120.49308508793941,34.721730089815189],[-120.49331827531581,34.722109217187942],[-120.49361332876752,34.722616042972319],[-120.49425578319746,34.723696317584697],[-120.49453420074842,34.724113032414344],[-120.49492681662986,34.724650788360591],[-120.49537184471657,34.725155242585153],[-120.49573818846922,34.725540401063519],[-120.49660193298793,34.726354176175668],[-120.49730625349318,34.727006149405966],[-120.49830562834845,34.727957933703337],[-120.50458877243234,34.73438023435255],[-120.50462792460567,34.734420254939458],[-120.50679316717265,34.736633447899372],[-120.50857026567168,34.738438386057204],[-120.51076851054557,34.740683227223322]]},"properties":{"County":"SB","Route":1,"bPM":23.295999999999999,"ePM":29}},{"type":"Feature","geometry":{"type":"LineString","coordinates":[[-120.38324818055807,34.581991161521607],[-120.38332442955938,34.582080231053489],[-120.38379080341386,34.582717924843827],[-120.38386694641395,34.582794068538092],[-120.38424941043436,34.583032868952515],[-120.38438504077095,34.583109013097882],[-120.38467060980985,34.583282170785424],[-120.3847599427733,34.583336340176366],[-120.38524418232213,34.583508343641178],[-120.38546118565039,34.583538839591689],[-120.38578003367731,34.583591188703998],[-120.38630506392659,34.583634401731651],[-120.38635824419143,34.583638777836143],[-120.38748491661063,34.583713729961453],[-120.38827251992591,34.583816046484998],[-120.38921478708191,34.583989747768783],[-120.39025223164063,34.58416344868948],[-120.39097796798224,34.584249108665823],[-120.39164421698744,34.584299077375981],[-120.39297433536063,34.584372841148216],[-120.39352636986567,34.584451362537095],[-120.39400464100777,34.584539402164488],[-120.39566550649216,34.584972465013216],[-120.39611284414747,34.585050987314688],[-120.39655304378952,34.58508667816966],[-120.39688379090073,34.58508429897698],[-120.39714077285235,34.585065263954327],[-120.39790220015853,34.584941531023787],[-120.39981290688637,34.584591751386114],[-120.40085749125495,34.584391875589866],[-120.40402217425421,34.583737523756298],[-120.40432436661749,34.583697072378101],[-120.40456469200711,34.583680417010186],[-120.40491209388368,34.583685175475772],[-120.40528566817606,34.583725625380573],[-120.40553788995503,34.583770835945089],[-120.40586149905299,34.583858875553894],[-120.40619700184527,34.583975469465187],[-120.40644208740761,34.58409206395249],[-120.40673238068663,34.584258625531582],[-120.40708692057646,34.584525125434503],[-120.40737959528926,34.584801142765663],[-120.40746641746149,34.584849614252526],[-120.40778764512561,34.585325506755972],[-120.40788579864682,34.58555452950948],[-120.40796313011808,34.585834116985545],[-120.40801964313258,34.586060166045456],[-120.40805533589376,34.586426007854797],[-120.40836466447362,34.589150489733711],[-120.40844602309228,34.589409995001603],[-120.40844926421386,34.589420332894342],[-120.40853717604249,34.589700740810933],[-120.40858375818155,34.590051856710453],[-120.40913087890198,34.591582605895766],[-120.40994465463304,34.593909720227231],[-120.41039913119985,34.595161317185863],[-120.41050144931074,34.595375468565706],[-120.41063707785062,34.595594378656003],[-120.41079650276242,34.595796633751142],[-120.41100351502807,34.596013163851865],[-120.41118435397962,34.596170207478693],[-120.41139850605515,34.596315355714651],[-120.41168166132093,34.596474779855086],[-120.41196957675936,34.596600890742032],[-120.412288423888,34.596710346463013],[-120.41272356511668,34.596817731539709],[-120.41339725307071,34.596983983655505],[-120.41617170611394,34.597681166252457],[-120.41648460370045,34.597795380425794],[-120.41676775986451,34.597938148476274],[-120.41702712235166,34.598114228635218],[-120.41721509931645,34.598271272726478],[-120.41742924959536,34.598509218224052],[-120.41760771070631,34.598782856145483],[-120.41773858087018,34.599082667274047],[-120.41780520532153,34.599332512505214],[-120.4178266211579,34.599584735762292],[-120.41781234333479,34.599877408428853],[-120.4177742718347,34.600074904441655],[-120.4177338224941,34.60019863480003],[-120.41736738531665,34.601159937339311],[-120.41728886267938,34.601447852922419],[-120.41726506810414,34.601738147702072],[-120.41727696539176,34.602054616117918],[-120.41818829906097,34.606616042852316],[-120.41832868687526,34.607106212175722],[-120.41859994575169,34.607684420323103],[-120.41890451775214,34.608129380140184],[-120.41921622686753,34.608481540493031],[-120.41962264446501,34.608839003501494],[-120.41998003470923,34.609112097971611],[-120.42030839948829,34.609316731178453],[-120.42538617064923,34.611910344033362],[-120.42578829968951,34.612172084158956],[-120.4261452183182,34.612457621596853],[-120.42639030388054,34.612688425989163],[-120.42666870077024,34.613002516420167],[-120.42689236959789,34.613311845937183],[-120.4271112809478,34.613680663236835],[-120.42726832532408,34.614023305070809],[-120.42739205567803,34.614368326062376],[-120.42749199415174,34.614791870120271],[-120.42753958420052,34.615144031784482],[-120.42768235165201,34.617480662873831],[-120.42773469917857,34.617980349067707],[-120.42779894399276,34.618346785866521],[-120.42792029830278,34.618851231429076],[-120.42804309171393,34.619030678958048],[-120.42878317864221,34.621502824754373],[-120.42879313556882,34.621531605015825],[-120.42911227195496,34.622453983750226],[-120.4292931109065,34.622958429482523],[-120.42958775921801,34.623545706191841],[-120.42966682353941,34.623745783460294],[-120.43080182603629,34.625387612203923],[-120.43214384259544,34.627300698590957],[-120.43238892815775,34.62772662115102],[-120.43256262729942,34.628119233091383],[-120.43267922233507,34.628466634787451],[-120.43276725992789,34.628821174761967],[-120.43281247123781,34.629099571392054],[-120.43285292237505,34.629589740263825],[-120.43283626581305,34.629965694344591],[-120.43277677937495,34.630420172696653],[-120.43267208252522,34.630853233583906],[-120.43257690422423,34.631131630786648],[-120.43243413767107,34.631483789639702],[-120.43199869730338,34.632442714271193],[-120.43193683032979,34.632637829638675],[-120.4319011375686,34.632849601884573],[-120.43189399955536,34.633044717034124],[-120.43191541539171,34.633223176683259],[-120.43194872851569,34.633368325187767],[-120.43201535117045,34.633561062052522],[-120.43210815163086,34.633741899867829],[-120.43224615980797,34.633927498049822],[-120.43247220827281,34.634160684825794],[-120.43273157075996,34.634341525029534],[-120.43358341709273,34.63487928183001],[-120.43379280989389,34.635048225009378],[-120.43397840811981,34.635255237808373],[-120.43414259050932,34.635500322159338],[-120.43423776881032,34.635709715267971],[-120.43430439415999,34.635950039848815],[-120.43433056927076,34.636183226851863],[-120.43432104982367,34.636392620453805],[-120.43419256109364,34.637130252996606],[-120.43417114435896,34.637384854410669],[-120.43419017965984,34.637668010933552],[-120.43424252808468,34.637932131020122],[-120.43430677379716,34.63812962666919],[-120.43439481408494,34.638329500993379],[-120.43449237202309,34.638524617295502],[-120.4357240143799,34.640827216477419],[-120.43595098271959,34.641251479851427],[-120.43595779374607,34.641247710601803],[-120.43639297090736,34.641006909150555],[-120.43880633624066,34.639671517358877],[-120.44003651614018,34.638986233436974],[-120.44031353681086,34.6388881149173],[-120.44034238979948,34.638882565832432],[-120.4406075877427,34.638831567153439],[-120.4427102473788,34.638841037853339],[-120.44525692719182,34.638863761911701],[-120.44527266298066,34.63886390159967],[-120.44895408208416,34.638896236772396],[-120.44902853984482,34.63889688938842],[-120.44907418863428,34.638876859321165],[-120.44913234736241,34.638851340767445],[-120.45029489490085,34.638860094547979],[-120.45029859056991,34.638860122633425],[-120.45153989879917,34.638869468423927],[-120.45157675577697,34.638869746321639],[-120.45281996933295,34.638879107631986],[-120.45283079942205,34.638879189670895],[-120.45408250654906,34.638888615280941],[-120.45410169186854,34.638888760142478],[-120.45534504376509,34.638898122189723],[-120.45538659084697,34.638898672811415],[-120.45657240385296,34.638914401373498],[-120.45661981064545,34.638914498194183],[-120.45778264564476,34.638916878801012],[-120.45788567162806,34.63899526805691],[-120.4579716907064,34.639080833043231],[-120.45796416102769,34.639528940810173],[-120.4579455317653,34.640637647169655],[-120.45794549493441,34.640640788234073],[-120.45792646592174,34.642233253411895],[-120.45792642639587,34.642236592483876],[-120.45790800733928,34.643782663719783],[-120.45790728419547,34.643843364499226],[-120.45790717639764,34.643855365857036],[-120.45789310249211,34.645424499426028],[-120.45789299020269,34.64543332863289],[-120.45787333775922,34.646987768018825],[-120.45787274576944,34.647034601016358],[-120.45783312826879,34.650167769854782],[-120.45783274378982,34.650198259798607],[-120.45781238167729,34.651816290247474],[-120.45781213464058,34.65183589449596],[-120.45780011518207,34.653377214785209],[-120.45780003074046,34.653388021342018],[-120.45774090093349,34.655183223302807],[-120.45769331268131,34.656139766456477],[-120.45765781215961,34.65714321009515],[-120.45765788222822,34.657146439944441],[-120.45768890464822,34.658564585069335],[-120.45776945568144,34.660777337534746],[-120.45776955090288,34.660784928936167],[-120.45777007102741,34.660826549369361],[-120.45778373170792,34.661923048289786],[-120.45782239879102,34.662812371250524],[-120.45783429518033,34.663820668252157],[-120.45780157853767,34.664519634535651],[-120.45774201484446,34.666496645123587],[-120.45774200316635,34.666498921500278],[-120.45773767957489,34.66732348663016],[-120.45773784935649,34.667381512579929],[-120.45774060448946,34.668323798902271],[-120.45771219437029,34.66926701797847],[-120.4577106852006,34.669325027790599],[-120.45769498085281,34.670555326864367],[-120.45764542708677,34.67137843090763],[-120.45758593885203,34.671958425237399],[-120.45741640250341,34.672966722486578],[-120.45724389093456,34.673695432436638],[-120.45716061081953,34.674111837671333],[-120.45691076867776,34.675810178803786],[-120.45677246944651,34.676626926848286],[-120.45666256596138,34.676720619897502],[-120.4565911382182,34.677037132534302],[-120.45654583258516,34.677218352009369],[-120.45654162846964,34.677235168124639],[-120.45647231715726,34.677426601807674],[-120.4563997036379,34.677591630846258],[-120.45629738642533,34.67779296581314],[-120.45616536282466,34.678007503805908],[-120.45600243089,34.678226817189625],[-120.45590664712452,34.678353043921661]]},"properties":{"County":"SB","Route":1,"bPM":13.218999999999999,"ePM":23.295999999999999}},{"type":"Feature","geometry":{"type":"LineString","coordinates":[[-120.37420422884011,34.575222219858105],[-120.37478692104915,34.575655685548334],[-120.3757458447672,34.576505152306936],[-120.37669049066207,34.577307031707804],[-120.37711165500325,34.577678227803354],[-120.37735198129124,34.577901896720228],[-120.37807295835847,34.578513419059668],[-120.37860357792542,34.578977412548319],[-120.37950539484252,34.579800706605347],[-120.37986707184727,34.580079103431316],[-120.3802358877636,34.580281357835865],[-120.38065229552537,34.580464576411472],[-120.38183726591154,34.580869085071186],[-120.38215611483682,34.581007094005805],[-120.38251303256718,34.581223623451756],[-120.38278667108085,34.581452052515722],[-120.38324818055807,34.581991161521607]]},"properties":{"County":"SB","Route":1,"bPM":12.505000000000001,"ePM":13.206}},{"type":"Feature","geometry":{"type":"LineString","coordinates":[[-120.34559653060769,34.531316609833596],[-120.35023087627641,34.535778296170612],[-120.35208209836276,34.537567650804903],[-120.35240332512859,34.537919811215495],[-120.35268410255379,34.53829814488568],[-120.35290301031047,34.538636029436816],[-120.35304577955856,34.538900148529734],[-120.35371440909925,34.540287374376625],[-120.35423869015358,34.541333857529949],[-120.35431291614887,34.541482015467793],[-120.35481419943359,34.542531797825653],[-120.35567831854981,34.544341360582813],[-120.35573017739284,34.544449956508537],[-120.35575360725208,34.544499020525251],[-120.35680532963389,34.546773785827618],[-120.35712417676253,34.547425757518496],[-120.35824014485684,34.549774286123316],[-120.35862323859628,34.550545233087675],[-120.35901109071176,34.55124003516017],[-120.3601817850715,34.553041286453272],[-120.36099555990421,34.554271468532107],[-120.36165705143169,34.555297015374293],[-120.36197589945864,34.555863326585346],[-120.36217339497216,34.556291630078249],[-120.36239468506093,34.556817491516163],[-120.36272067110114,34.557640784540652],[-120.36310376484055,34.558652055282096],[-120.36399368447003,34.560936338636957],[-120.36428947454027,34.561666509974451],[-120.36438365121971,34.561898987561442],[-120.36459958195948,34.562464403832159],[-120.3653309408565,34.564379419206659],[-120.36579731471096,34.565581047490888],[-120.3658877346359,34.565778542910074],[-120.36599481112282,34.56597127912066],[-120.36609950797254,34.566133082032479],[-120.36620182428678,34.566256814111298],[-120.36642073384006,34.566492380572726],[-120.36668961307932,34.566716049255028],[-120.36692756062841,34.566868336300402],[-120.36793645133747,34.567439406538298],[-120.3681458432403,34.567577415577027],[-120.36835999531586,34.56774397696114],[-120.36853369625412,34.567922436431985],[-120.36870977682959,34.56813896741307],[-120.36895724113079,34.56857916815877],[-120.37015886897734,34.570918178150045],[-120.37085843020822,34.572298265583932],[-120.37097264470837,34.57250527879431],[-120.3711701393236,34.572807470349005],[-120.37138429050081,34.573076349521358],[-120.37162699642596,34.573328572600794],[-120.37186732181559,34.573542723294572],[-120.37213858069205,34.573742599292672],[-120.37420157252181,34.575220242756217],[-120.37420422884011,34.575222219858105]]},"properties":{"County":"SB","Route":1,"bPM":9.0199999999999996,"ePM":12.505000000000001}},{"type":"Feature","geometry":{"type":"LineString","coordinates":[[-120.22589172325507,34.509207195626828],[-120.22598968004523,34.509281389447324],[-120.22610649965975,34.509369870612488],[-120.2262740049175,34.509496739840579],[-120.22628822165518,34.509507508122887],[-120.22633311316488,34.509541511072953],[-120.22692949030899,34.510005972882581],[-120.227184960396,34.510098304723684],[-120.22734557557553,34.510180396055759],[-120.22756567449824,34.510263676122833],[-120.22775903057494,34.510310858624194],[-120.22781432727056,34.51032435160073],[-120.22810270174813,34.51036615997576],[-120.22814874130476,34.510372834657183],[-120.22828826314311,34.51037415745359],[-120.22831961704146,34.510374455027275],[-120.22839977461257,34.510375214506354],[-120.22862611862313,34.510348148622427],[-120.22871158883086,34.510335989550292],[-120.22888425760488,34.510311423422436],[-120.22891254734979,34.510307399512648],[-120.22914335598732,34.510298476736317],[-120.22942413251424,34.510300856587541],[-120.23110156832236,34.510428659311998],[-120.23142288132647,34.510453141758994],[-120.2318725977206,34.510505489491102],[-120.23243462598316,34.510609818442376],[-120.23266733815079,34.510653016827142],[-120.23298618617771,34.510717261410498],[-120.23361198674063,34.51090523963699],[-120.23479933586573,34.511369233426457],[-120.23572874813003,34.511757116652348],[-120.23666244715487,34.512128161088789],[-120.23670255872895,34.51214410240987],[-120.23718973576878,34.512337704536648],[-120.23727096592835,34.512425399309492],[-120.23814039768114,34.512804603081925],[-120.2395894907272,34.513368536427215],[-120.24332048605463,34.514655824637074],[-120.24399387307307,34.514858078227888],[-120.24519550091958,34.515150751577664],[-120.24739174255041,34.515614746892929],[-120.24876945097242,34.515962146761289],[-120.2493833533494,34.516195333804411],[-120.25027565081942,34.516497527075771],[-120.25109418582483,34.516802096696068],[-120.25111165805708,34.516808140972337],[-120.25292399117652,34.517435034255783],[-120.25342605689384,34.517565903661335],[-120.25398760994763,34.517680119080467],[-120.2545705788378,34.517741983788369],[-120.25685248291578,34.517899028692241],[-120.25777333423541,34.517929961710841],[-120.25977922016259,34.517948996554836],[-120.2601789695657,34.517963272870027],[-120.26071672714592,34.518013242914556],[-120.2614329458371,34.518113179212932],[-120.26196118666522,34.518225014256934],[-120.26256319085621,34.518396335231429],[-120.26336744803851,34.51868900947477],[-120.26555639804417,34.519530555810285],[-120.2656017620677,34.519547994521922],[-120.26692236279044,34.519995333494059],[-120.27226901229234,34.521641921229808],[-120.27296619478436,34.52185131344816],[-120.27368479311272,34.522053567333899],[-120.27479600013604,34.522262959257546],[-120.2752980667517,34.522334344513816],[-120.28027976219467,34.522958528075108],[-120.28033062839931,34.522964899778373],[-120.28082793574062,34.523052940103504],[-120.28152035805992,34.523229019734572],[-120.28188441649849,34.523355132183156],[-120.28261729085337,34.523669219033991],[-120.28528704704682,34.525125451190689],[-120.28572486705171,34.525334842792944],[-120.28631735179565,34.525582307473627],[-120.28690032248245,34.525782181771923],[-120.28692821786694,34.525789546468076],[-120.28779261905414,34.526017748852922],[-120.28853263142229,34.526153377633577],[-120.28926788541433,34.526239038892967],[-120.29009117969414,34.526277109959935],[-120.29079549930107,34.526262834329536],[-120.2908108685773,34.52626162649959],[-120.29152242501213,34.526205725862546],[-120.29214346360571,34.526112926370494],[-120.29269074063299,34.526001091555031],[-120.29486318858686,34.525529958112706],[-120.29759890627503,34.524929346884861],[-120.29795109257881,34.52485202081462],[-120.29832054809559,34.524770909775185],[-120.29870915659255,34.524672289971321],[-120.29910814781758,34.524571035270299],[-120.29929758095143,34.524520454870412],[-120.30001710184962,34.524328330926842],[-120.30134008220955,34.52391430402038],[-120.30274396574232,34.523462205680104],[-120.30488849405715,34.522781622635371],[-120.3049782797715,34.522753126423105],[-120.30499129007174,34.522748818166839],[-120.30793832834567,34.521772789207539],[-120.30859744023594,34.521515806187352],[-120.30927558652874,34.521215995115703],[-120.30991804095871,34.520887629123877],[-120.31079844024278,34.520428392693503],[-120.31241264902798,34.51960773064885],[-120.31306368865711,34.519276732991457],[-120.31368710688785,34.518912674906005],[-120.31454133375615,34.518496269589896],[-120.31510050717273,34.518186939509597],[-120.31585717610285,34.51786809196139],[-120.31659718847099,34.517665838275768],[-120.31688510301112,34.517627766233502],[-120.31803200369392,34.517537346451263],[-120.31857452054851,34.5175278293529],[-120.31954772029303,34.517603972030969],[-120.32174634425598,34.517713426638707],[-120.32217940498644,34.517758636816659],[-120.32412104520111,34.517868090481031],[-120.32474611453537,34.517921452763346],[-120.32509662458281,34.517951373967072],[-120.32596036820324,34.518051309599485],[-120.32697163944779,34.518225010556101],[-120.32786155728064,34.518442836620224],[-120.32810902158187,34.518503407700912],[-120.32908460096355,34.518786563873356],[-120.33612386959851,34.521305758105399],[-120.3362586788749,34.521354001629348],[-120.33747131737186,34.521796796117414],[-120.33791240275278,34.52197979935891],[-120.33841922864282,34.522246299728444],[-120.33886180882037,34.522510419742915],[-120.33936625507322,34.52285781972116],[-120.33961847775049,34.523055316630007],[-120.34003726155616,34.523428891538998],[-120.3403442131938,34.523745359799292],[-120.34081772506153,34.524297395843476],[-120.34113181471243,34.524713801765422],[-120.34148397586337,34.525289629325812],[-120.34286882229863,34.527619121527302],[-120.34368973514461,34.528989692885382],[-120.34397289220699,34.529451308041075],[-120.34426556691982,34.529872472680921],[-120.34471052583623,34.530424506595729],[-120.34531253002726,34.531043167222236],[-120.34559653060769,34.531316609833596]]},"properties":{"County":"SB","Route":1,"bPM":0,"ePM":7.6059999999999999}},{"type":"Feature","geometry":{"type":"LineString","coordinates":[[-120.44295985416196,34.800913669258634],[-120.44297497999472,34.800942781060655],[-120.44410427998615,34.803116194492851],[-120.44486570729232,34.804600977125595],[-120.44667647824146,34.808179687345067],[-120.44802871852684,34.810759960699066],[-120.44804942738911,34.810799474439328],[-120.44834923921684,34.811475240988578],[-120.44857766642056,34.812093900726047],[-120.44871567639429,34.812548377680656],[-120.44882513251839,34.812988578621855],[-120.44907878980517,34.814132540754755],[-120.44935099281099,34.815451319715173],[-120.44952945302366,34.816341238913338],[-120.44970315396193,34.816981314486469],[-120.44980309153731,34.817390582586945],[-120.45009338661293,34.819170418149803],[-120.4501885649139,34.819555891782137],[-120.45028612195378,34.819860462110611],[-120.45034323055133,34.820129342162602],[-120.45037416134319,34.820728966362942],[-120.45035036766626,34.821245309224864],[-120.45025518936527,34.821835415814334],[-120.45014811287835,34.822458832480791],[-120.45008624770136,34.823336855524509],[-120.45002914179875,34.823912685102457],[-120.44997679157726,34.824745495612923],[-120.44985782049767,34.826320699054286],[-120.44986971688695,34.826908426530075],[-120.44992444405069,34.827465221575153],[-120.45001248433844,34.828098157487808],[-120.45033609163976,34.829711431412058],[-120.45058117540547,34.831034412490283],[-120.45078818856943,34.831829152312281],[-120.45090478360511,34.832431157806454],[-120.45125218458337,34.833984944740408],[-120.45134260540659,34.834527461979171],[-120.45144254208363,34.835288889215406],[-120.45159244844668,34.836695151237684],[-120.45182563492475,34.838998469174918],[-120.45194698743816,34.840223891702003],[-120.45200409513741,34.840949627412058],[-120.45207785850033,34.841311305107851],[-120.45220634902701,34.842462965426833],[-120.45244191604058,34.844811493069869],[-120.45250854049195,34.845411116699502],[-120.4525942020408,34.846272481910162],[-120.45284404687752,34.848302162868919],[-120.45294398265625,34.849170666455954],[-120.45302250529356,34.849989200623803],[-120.45308199173166,34.850374674481444],[-120.45316289490448,34.850967159129858],[-120.45329614290888,34.8516429263722],[-120.45339370264368,34.852221135181075],[-120.45353660753739,34.853620483702819],[-120.45357692033409,34.854015248759474],[-120.45358998363494,34.854271658712086],[-120.45361147582813,34.854693540070386],[-120.45364711558869,34.855033658888928],[-120.45369946221695,34.855362023837415],[-120.45380891923936,34.856461334513199],[-120.45378750250467,34.857260834011605],[-120.45378512286749,34.857629652149043],[-120.45376608756662,34.858441047115285],[-120.4538588871287,34.859587946967451],[-120.45393027085446,34.860080495377744],[-120.45402782789432,34.860487382893226],[-120.45418249353175,34.860951378580005],[-120.4543585741072,34.861348748018649],[-120.4545751049216,34.861736600339455],[-120.45482494885999,34.862110176256813],[-120.45518186748868,34.862538479491356],[-120.45554830646275,34.86290967539631],[-120.45590284545425,34.863219004651583],[-120.45653102116276,34.863675861781104],[-120.45695951665498,34.863965262725706],[-120.45698175534815,34.863980282164121],[-120.46152551131036,34.866957137162927],[-120.46626302040457,34.870074231449095],[-120.46757648311412,34.870926079317073],[-120.46788819312779,34.871116434768467],[-120.46820529213487,34.871283114730794],[-120.46821231785874,34.87128680863723],[-120.46825938868129,34.87131155161525],[-120.46856871905779,34.87145907848204],[-120.46888518475262,34.871589948666092],[-120.46960854325368,34.871856448739692],[-120.47044568147032,34.872113575457007]]},"properties":{"County":"SB","Route":1,"bPM":31.042000000000002,"ePM":36.5}}]}